{
  "type": "FeatureCollection",
  "features": [
    {
      "type": "Feature",
      "properties": {
        "norad_id": 37978,
        "name": "COSMOS 2251 DEB",
        "group": "cosmos-2251-debris",
        "lat": 13.13259234349586,
        "lon": -77.87053493344376,
        "alt_km": 334.00978314226904,
        "timestamp": "2025-12-05T07:38:19.243264+00:00",
        "meta_object_name": "COSMOS 2251 DEB",
        "meta_object_id": "1993-036BQD",
        "meta_epoch": "2025-11-19T05:08:53.100672",
        "meta_mean_motion": 15.61137081,
        "meta_eccentricity": 0.00148985,
        "meta_inclination": 74.0238,
        "meta_ra_of_asc_node": 142.2198,
        "meta_arg_of_pericenter": 140.9849,
        "meta_mean_anomaly": 219.2448,
        "meta_ephemeris_type": 0,
        "meta_classification_type": "U",
        "meta_norad_cat_id": 37978,
        "meta_element_set_no": 999,
        "meta_rev_at_epoch": 8032,
        "meta_bstar": 0.0043958825,
        "meta_mean_motion_dot": 0.0039117,
        "meta_mean_motion_ddot": 0,
        "tle_line1": "1 37978U 93036BQD 25323.21450348  .00391170  00000+0  43959-2 0  9999",
        "tle_line2": "2 37978  74.0238 142.2198 0014898 140.9849 219.2448 15.61137081 80328"
      },
      "geometry": {
        "type": "Point",
        "coordinates": [
          -77.87053493344376,
          13.13259234349586
        ]
      }
    },
    {
      "type": "Feature",
      "properties": {
        "norad_id": 37985,
        "name": "COSMOS 2251 DEB",
        "group": "cosmos-2251-debris",
        "lat": 46.02316887339315,
        "lon": -63.37125654429744,
        "alt_km": 754.4710776261418,
        "timestamp": "2025-12-05T07:38:19.243274+00:00",
        "meta_object_name": "COSMOS 2251 DEB",
        "meta_object_id": "1993-036BQL",
        "meta_epoch": "2025-12-04T02:58:50.123136",
        "meta_mean_motion": 14.35478479,
        "meta_eccentricity": 0.00205167,
        "meta_inclination": 74.0252,
        "meta_ra_of_asc_node": 281.5497,
        "meta_arg_of_pericenter": 46.9624,
        "meta_mean_anomaly": 313.3243,
        "meta_ephemeris_type": 0,
        "meta_classification_type": "U",
        "meta_norad_cat_id": 37985,
        "meta_element_set_no": 999,
        "meta_rev_at_epoch": 64793,
        "meta_bstar": 0.00010075187,
        "meta_mean_motion_dot": 2.64e-06,
        "meta_mean_motion_ddot": 0,
        "tle_line1": "1 37985U 93036BQL 25338.12419124  .00000264  00000+0  10075-3 0  9995",
        "tle_line2": "2 37985  74.0252 281.5497 0020516  46.9624 313.3243 14.35478479647935"
      },
      "geometry": {
        "type": "Point",
        "coordinates": [
          -63.37125654429744,
          46.02316887339315
        ]
      }
    },
    {
      "type": "Feature",
      "properties": {
        "norad_id": 37988,
        "name": "COSMOS 2251 DEB",
        "group": "cosmos-2251-debris",
        "lat": -56.91194138418013,
        "lon": -115.62611169121942,
        "alt_km": 714.1972949243436,
        "timestamp": "2025-12-05T07:38:19.243285+00:00",
        "meta_object_name": "COSMOS 2251 DEB",
        "meta_object_id": "1993-036BQP",
        "meta_epoch": "2025-12-03T03:52:26.933376",
        "meta_mean_motion": 14.68713906,
        "meta_eccentricity": 0.00633293,
        "meta_inclination": 74.0639,
        "meta_ra_of_asc_node": 42.5299,
        "meta_arg_of_pericenter": 83.2268,
        "meta_mean_anomaly": 277.6103,
        "meta_ephemeris_type": 0,
        "meta_classification_type": "U",
        "meta_norad_cat_id": 37988,
        "meta_element_set_no": 999,
        "meta_rev_at_epoch": 23255,
        "meta_bstar": 0.001359236,
        "meta_mean_motion_dot": 8.141e-05,
        "meta_mean_motion_ddot": 0,
        "tle_line1": "1 37988U 93036BQP 25337.16142284  .00008141  00000+0  13592-2 0  9999",
        "tle_line2": "2 37988  74.0639  42.5299 0063329  83.2268 277.6103 14.68713906232557"
      },
      "geometry": {
        "type": "Point",
        "coordinates": [
          -115.62611169121942,
          -56.91194138418013
        ]
      }
    },
    {
      "type": "Feature",
      "properties": {
        "norad_id": 37993,
        "name": "COSMOS 2251 DEB",
        "group": "cosmos-2251-debris",
        "lat": -69.60295147737989,
        "lon": 51.48181760812753,
        "alt_km": 685.7540685787626,
        "timestamp": "2025-12-05T07:38:19.243295+00:00",
        "meta_object_name": "COSMOS 2251 DEB",
        "meta_object_id": "1993-036BQU",
        "meta_epoch": "2025-12-03T19:55:21.764064",
        "meta_mean_motion": 14.59748626,
        "meta_eccentricity": 0.00218643,
        "meta_inclination": 74.0235,
        "meta_ra_of_asc_node": 183.9251,
        "meta_arg_of_pericenter": 273.6547,
        "meta_mean_anomaly": 86.2118,
        "meta_ephemeris_type": 0,
        "meta_classification_type": "U",
        "meta_norad_cat_id": 37993,
        "meta_element_set_no": 999,
        "meta_rev_at_epoch": 65187,
        "meta_bstar": 0.0022910126,
        "meta_mean_motion_dot": 0.00010959,
        "meta_mean_motion_ddot": 0,
        "tle_line1": "1 37993U 93036BQU 25337.83011301  .00010959  00000+0  22910-2 0  9998",
        "tle_line2": "2 37993  74.0235 183.9251 0021864 273.6547  86.2118 14.59748626651873"
      },
      "geometry": {
        "type": "Point",
        "coordinates": [
          51.48181760812753,
          -69.60295147737989
        ]
      }
    },
    {
      "type": "Feature",
      "properties": {
        "norad_id": 37994,
        "name": "COSMOS 2251 DEB",
        "group": "cosmos-2251-debris",
        "lat": 14.402042278451555,
        "lon": 105.17771926625765,
        "alt_km": 774.9236705494068,
        "timestamp": "2025-12-05T07:38:19.243305+00:00",
        "meta_object_name": "COSMOS 2251 DEB",
        "meta_object_id": "1993-036BQV",
        "meta_epoch": "2025-12-04T14:11:52.594944",
        "meta_mean_motion": 14.39592781,
        "meta_eccentricity": 0.0022549,
        "meta_inclination": 74.0358,
        "meta_ra_of_asc_node": 290.7346,
        "meta_arg_of_pericenter": 11.8946,
        "meta_mean_anomaly": 348.2736,
        "meta_ephemeris_type": 0,
        "meta_classification_type": "U",
        "meta_norad_cat_id": 37994,
        "meta_element_set_no": 999,
        "meta_rev_at_epoch": 76947,
        "meta_bstar": 0.00070112,
        "meta_mean_motion_dot": 2.171e-05,
        "meta_mean_motion_ddot": 0,
        "tle_line1": "1 37994U 93036BQV 25338.59158096  .00002171  00000+0  70112-3 0  9991",
        "tle_line2": "2 37994  74.0358 290.7346 0022549  11.8946 348.2736 14.39592781769478"
      },
      "geometry": {
        "type": "Point",
        "coordinates": [
          105.17771926625765,
          14.402042278451555
        ]
      }
    },
    {
      "type": "Feature",
      "properties": {
        "norad_id": 37996,
        "name": "COSMOS 2251 DEB",
        "group": "cosmos-2251-debris",
        "lat": 45.140801873367906,
        "lon": 19.565263636685838,
        "alt_km": 1006.9515412538149,
        "timestamp": "2025-12-05T07:38:19.243315+00:00",
        "meta_object_name": "COSMOS 2251 DEB",
        "meta_object_id": "1993-036BQX",
        "meta_epoch": "2025-11-16T18:35:00.708864",
        "meta_mean_motion": 14.09591608,
        "meta_eccentricity": 0.02219827,
        "meta_inclination": 74.0658,
        "meta_ra_of_asc_node": 248.8308,
        "meta_arg_of_pericenter": 5.4709,
        "meta_mean_anomaly": 354.8776,
        "meta_ephemeris_type": 0,
        "meta_classification_type": "U",
        "meta_norad_cat_id": 37996,
        "meta_element_set_no": 999,
        "meta_rev_at_epoch": 55769,
        "meta_bstar": 0.0096790999,
        "meta_mean_motion_dot": 0.00021331,
        "meta_mean_motion_ddot": 0,
        "tle_line1": "1 37996U 93036BQX 25320.77431376  .00021331  00000+0  96791-2 0  9998",
        "tle_line2": "2 37996  74.0658 248.8308 0221982   5.4709 354.8776 14.09591608557693"
      },
      "geometry": {
        "type": "Point",
        "coordinates": [
          19.565263636685838,
          45.140801873367906
        ]
      }
    },
    {
      "type": "Feature",
      "properties": {
        "norad_id": 37998,
        "name": "COSMOS 2251 DEB",
        "group": "cosmos-2251-debris",
        "lat": -74.01215018140188,
        "lon": 161.47349523440508,
        "alt_km": 739.1816773865803,
        "timestamp": "2025-12-05T07:38:19.243325+00:00",
        "meta_object_name": "COSMOS 2251 DEB",
        "meta_object_id": "1993-036BQZ",
        "meta_epoch": "2025-11-29T12:31:01.771392",
        "meta_mean_motion": 14.45395467,
        "meta_eccentricity": 0.00197878,
        "meta_inclination": 74.0369,
        "meta_ra_of_asc_node": 259.7366,
        "meta_arg_of_pericenter": 336.2714,
        "meta_mean_anomaly": 23.753,
        "meta_ephemeris_type": 0,
        "meta_classification_type": "U",
        "meta_norad_cat_id": 37998,
        "meta_element_set_no": 999,
        "meta_rev_at_epoch": 64096,
        "meta_bstar": 0.00059073677,
        "meta_mean_motion_dot": 2.057e-05,
        "meta_mean_motion_ddot": 0,
        "tle_line1": "1 37998U 93036BQZ 25333.52154828  .00002057  00000+0  59074-3 0  9999",
        "tle_line2": "2 37998  74.0369 259.7366 0019787 336.2714  23.7530 14.45395467640966"
      },
      "geometry": {
        "type": "Point",
        "coordinates": [
          161.47349523440508,
          -74.01215018140188
        ]
      }
    }
  ]
}